[{"OBJECT_NAME":"SIRION PATHFINDER-2","OBJECT_ID":"2018-099B","EPOCH":"2026-03-09T17:13:30.927648","MEAN_MOTION":15.13540628,"ECCENTRICITY":0.00072474,"INCLINATION":97.4389,"RA_OF_ASC_NODE":120.1436,"ARG_OF_PERICENTER":286.459,"MEAN_ANOMALY":73.5844,"EPHEMERIS_TYPE":0,"CLASSIFICATION_TYPE":"U","NORAD_CAT_ID":43759,"ELEMENT_SET_NO":999,"REV_AT_EPOCH":39757,"BSTAR":0.0003403547,"MEAN_MOTION_DOT":6.04e-5,"MEAN_MOTION_DDOT":0},{"OBJECT_NAME":"STARLINK-5400","OBJECT_ID":"2022-177AT","EPOCH":"2026-03-09T22:00:01.999584","MEAN_MOTION":15.13157782,"ECCENTRICITY":0.00021638,"INCLINATION":43.0004,"RA_OF_ASC_NODE":118.7368,"ARG_OF_PERICENTER":271.0289,"MEAN_ANOMALY":86.7671,"EPHEMERIS_TYPE":0,"CLASSIFICATION_TYPE":"U","NORAD_CAT_ID":54861,"ELEMENT_SET_NO":999,"REV_AT_EPOCH":567,"BSTAR":0.0017144311,"MEAN_MOTION_DOT":0.00030851,"MEAN_MOTION_DDOT":0}]
